NORAD_CAT_ID,OBJECT_NAME,OBJECT_TYPE,EPOCH,MEAN_MOTION,ECCENTRICITY,INCLINATION,RA_OF_ASC_NODE,ARG_OF_PERICENTER,MEAN_ANOMALY,BSTAR,MEAN_MOTION_DOT,MEAN_MOTION_DDOT,TLE_LINE0,TLE_LINE1,TLE_LINE2,SEMIMAJOR_AXIS,PERIOD,APOGEE,PERIGEE,DECAYED
51962.0,STARLINK-3697,PAYLOAD,2023-05-11 21:03:08,15.08035262,6.05e-05,53.1081,345.5845,78.2966,281.8092,6.0785e-06,-1.91e-06,0.0,0 STARLINK-3697,1 51962U 22025G   23131.87717829 -.00000191  00000-0  60785-5 0  9996,2 51962  53.1081 345.5845 0000605  78.2966 281.8092 15.08035262 66381,6920.341,95.488,542.625,541.788,0.0
51962.0,STARLINK-3697,PAYLOAD,2023-05-12 17:43:48,15.08033262,6.93e-05,53.1074,341.7121,86.3849,273.722,7.8845e-05,9.42e-06,0.0,0 STARLINK-3697,1 51962U 22025G   23132.73875416  .00000942  00000-0  78845-4 0  9997,2 51962  53.1074 341.7121 0000693  86.3849 273.7220 15.08033262 65408,6920.347,95.489,542.692,541.733,0.0
51962.0,STARLINK-3697,PAYLOAD,2023-05-13 00:05:32,15.08056096,5.76e-05,53.1063,340.5249,80.0616,280.044,-0.00012182,-2.183e-05,0.0,0 STARLINK-3697,1 51962U 22025G   23133.00384320 -.00002183  00000-0 -12182-3 0  9999,2 51962  53.1063 340.5249 0000576  80.0616 280.0440 15.08056096 66559,6920.278,95.487,542.541,541.744,0.0
51962.0,STARLINK-3697,PAYLOAD,2023-05-13 20:46:13,15.08021497,8.22e-05,53.1036,336.6488,125.0353,235.0715,0.00012732,1.697e-05,0.0,0 STARLINK-3697,1 51962U 22025G   23133.86543499  .00001697  00000-0  12732-3 0  9995,2 51962  53.1036 336.6488 0000822 125.0353 235.0715 15.08021497 65575,6920.383,95.489,542.817,541.68,0.0
51962.0,STARLINK-3697,PAYLOAD,2023-05-14 06:18:50,15.08031316,6.9e-05,53.1042,334.8612,89.6776,270.4294,7.9998e-05,9.6e-06,0.0,0 STARLINK-3697,1 51962U 22025G   23134.26308171  .00000960  00000-0  79998-4 0  9996,2 51962  53.1042 334.8612 0000690  89.6776 270.4294 15.08031316 66744,6920.353,95.489,542.696,541.741,0.0
51962.0,STARLINK-3697,PAYLOAD,2023-05-14 20:37:45,15.08035614,7e-05,53.1025,332.1789,101.6715,258.4353,-6.3409e-08,-2.87e-06,0.0,0 STARLINK-3697,1 51962U 22025G   23134.85955594 -.00000287  00000-0 -63409-7 0  9995,2 51962  53.1025 332.1789 0000700 101.6715 258.4353 15.08035614 65725,6920.34,95.488,542.69,541.721,0.0
51962.0,STARLINK-3697,PAYLOAD,2023-05-14 22:13:11,15.08043193,6.68e-05,53.1025,331.8809,102.6148,257.4917,-8.5734e-05,-1.62e-05,0.0,0 STARLINK-3697,1 51962U 22025G   23134.92582829 -.00001620  00000-0 -85734-4 0  9994,2 51962  53.1025 331.8809 0000668 102.6148 257.4917 15.08043193 66848,6920.317,95.488,542.644,541.72,0.0
51962.0,STARLINK-3697,PAYLOAD,2023-05-15 18:53:51,15.08032516,7.57e-05,53.1025,328.008,95.6539,264.4537,0.00010087,1.285e-05,0.0,0 STARLINK-3697,1 51962U 22025G   23135.78740574  .00001285  00000-0  10087-3 0  9995,2 51962  53.1025 328.0080 0000757  95.6539 264.4537 15.08032516 66978,6920.35,95.489,542.739,541.691,0.0
51962.0,STARLINK-3697,PAYLOAD,2023-05-15 22:04:44,15.08033193,7.25e-05,53.1018,327.4115,93.9299,266.1774,9.8253e-05,1.244e-05,0.0,0 STARLINK-3697,1 51962U 22025G   23135.91995524  .00001244  00000-0  98253-4 0  9994,2 51962  53.1018 327.4115 0000725  93.9299 266.1774 15.08033193 65884,6920.348,95.489,542.714,541.711,0.0
51962.0,STARLINK-3697,PAYLOAD,2023-05-16 18:45:24,15.08036232,7.34e-05,53.1012,323.5389,86.2183,273.8891,6.6121e-05,7.44e-06,0.0,0 STARLINK-3697,1 51962U 22025G   23136.78152859  .00000744  00000-0  66121-4 0  9999,2 51962  53.1012 323.5389 0000734  86.2183 273.8891 15.08036232 66013,6920.338,95.488,542.711,541.695,0.0
51962.0,STARLINK-3697,PAYLOAD,2023-05-17 02:42:35,15.08026429,9.17e-05,53.1012,322.0484,62.7986,297.3098,5.4987e-06,-2e-06,0.0,0 STARLINK-3697,1 51962U 22025G   23137.11291140 -.00000200  00000-0  54987-5 0  9990,2 51962  53.1012 322.0484 0000917  62.7986 297.3098 15.08026429 67171,6920.368,95.489,542.868,541.599,0.0
51962.0,STARLINK-3697,PAYLOAD,2023-05-17 10:39:45,15.08032828,0.0001128,53.0975,320.5628,68.5458,291.5653,3.3192e-05,2.31e-06,0.0,0 STARLINK-3697,1 51962U 22025G   23137.44428099  .00000231  00000-0  33192-4 0  9998,2 51962  53.0975 320.5628 0001128  68.5458 291.5653 15.08032828 67223,6920.349,95.489,542.994,541.433,0.0
51962.0,STARLINK-3697,PAYLOAD,2023-05-17 20:12:22,15.08035946,8.1e-05,53.0994,318.7718,85.3787,274.7296,8.4244e-05,1.026e-05,0.0,0 STARLINK-3697,1 51962U 22025G   23137.84192819  .00001026  00000-0  84244-4 0  9997,2 51962  53.0994 318.7718 0000810  85.3787 274.7296 15.08035946 66175,6920.339,95.488,542.765,541.644,0.0
51962.0,STARLINK-3697,PAYLOAD,2023-05-18 12:06:44,15.08040445,5.6e-05,53.099,315.7914,80.2452,279.8601,-4.2208e-05,-9.43e-06,0.0,0 STARLINK-3697,1 51962U 22025G   23138.50467920 -.00000943  00000-0 -42208-4 0  9992,2 51962  53.0990 315.7914 0000560  80.2452 279.8601 15.08040445 67381,6920.325,95.488,542.578,541.803,0.0
51962.0,STARLINK-3697,PAYLOAD,2023-05-18 18:28:28,15.0803478,7.93e-05,53.099,314.5991,86.0309,274.0772,5.8396e-05,6.24e-06,0.0,0 STARLINK-3697,1 51962U 22025G   23138.76977793  .00000624  00000-0  58396-4 0  9993,2 51962  53.0990 314.5991 0000793  86.0309 274.0772 15.08034780 66319,6920.343,95.489,542.757,541.659,0.0
51962.0,STARLINK-3697,PAYLOAD,2023-05-19 18:20:01,15.08032526,7.89e-05,53.0991,310.13,82.4323,277.6757,5.8196e-05,6.21e-06,0.0,0 STARLINK-3697,1 51962U 22025G   23139.76390541  .00000621  00000-0  58196-4 0  9999,2 51962  53.0991 310.1300 0000789  82.4323 277.6757 15.08032526 67574,6920.35,95.489,542.761,541.669,0.0
51962.0,STARLINK-3697,PAYLOAD,2023-05-20 18:11:33,15.08041791,9.05e-05,53.0942,305.6591,83.843,276.2663,0.00016624,2.304e-05,0.0,0 STARLINK-3697,1 51962U 22025G   23140.75802331  .00002304  00000-0  16624-3 0  9994,2 51962  53.0942 305.6591 0000905  83.8430 276.2663 15.08041791 67727,6920.321,95.488,542.813,541.56,0.0
51962.0,STARLINK-3697,PAYLOAD,2023-05-21 10:05:55,15.08027289,7.03e-05,53.0932,302.6817,87.5596,272.5474,2.551e-05,1.12e-06,0.0,0 STARLINK-3697,1 51962U 22025G   23141.42078310  .00000112  00000-0  25510-4 0  9991,2 51962  53.0932 302.6817 0000703  87.5596 272.5474 15.08027289 67820,6920.366,95.489,542.717,541.744,0.0
51962.0,STARLINK-3697,PAYLOAD,2023-05-21 13:16:48,15.08024906,6.25e-05,53.0928,302.0842,76.5865,283.5195,-2.1956e-05,-6.27e-06,0.0,0 STARLINK-3697,1 51962U 22025G   23141.55333490 -.00000627  00000-0 -21956-4 0  9991,2 51962  53.0928 302.0842 0000625  76.5865 283.5195 15.08024906 66731,6920.373,95.489,542.67,541.805,0.0
51962.0,STARLINK-3697,PAYLOAD,2023-05-21 18:03:06,15.08025555,9.14e-05,53.0932,301.1884,73.1425,286.9665,-4.8947e-06,-3.62e-06,0.0,0 STARLINK-3697,1 51962U 22025G   23141.75216129 -.00000362  00000-0 -48947-5 0  9998,2 51962  53.0932 301.1884 0000914  73.1425 286.9665 15.08025555 66761,6920.371,95.489,542.868,541.603,0.0
51962.0,STARLINK-3697,PAYLOAD,2023-05-22 09:57:27,15.08039697,6.65e-05,53.0921,298.207,105.3317,254.7747,0.00033472,4.93e-05,0.0,0 STARLINK-3697,1 51962U 22025G   23142.41490521  .00004930  00000-0  33472-3 0  9990,2 51962  53.0921 298.2070 0000665 105.3317 254.7747 15.08039697 67973,6920.328,95.488,542.653,541.732,0.0
51962.0,STARLINK-3697,PAYLOAD,2023-05-22 16:19:12,15.08044272,8.31e-05,53.0916,297.0148,108.7217,251.3863,0.00064009,9.697e-05,0.0,0 STARLINK-3697,1 51962U 22025G   23142.68000549  .00009697  00000-0  64009-3 0  9991,2 51962  53.0916 297.0148 0000831 108.7217 251.3863 15.08044272 66900,6920.314,95.488,542.754,541.604,0.0
51962.0,STARLINK-3697,PAYLOAD,2023-05-23 09:49:00,15.08040958,6.59e-05,53.0903,293.7399,85.2699,274.8366,0.00028646,4.178e-05,0.0,0 STARLINK-3697,1 51962U 22025G   23143.40902988  .00004178  00000-0  28646-3 0  9996,2 51962  53.0903 293.7399 0000659  85.2699 274.8366 15.08040958 68129,6920.324,95.488,542.645,541.733,0.0
51962.0,STARLINK-3697,PAYLOAD,2023-05-23 16:10:45,15.0803168,8.16e-05,53.0907,292.5457,101.6025,258.5056,0.0001405,1.902e-05,0.0,0 STARLINK-3697,1 51962U 22025G   23143.67413406  .00001902  00000-0  14050-3 0  9993,2 51962  53.0907 292.5457 0000816 101.6025 258.5056 15.08031680 68167,6920.352,95.489,542.782,541.653,0.0
51962.0,STARLINK-3697,PAYLOAD,2023-05-24 09:40:32,15.08047241,7.77e-05,53.0899,289.2687,84.146,275.9619,-9.1878e-05,-1.716e-05,0.0,0 STARLINK-3697,1 51962U 22025G   23144.40315081 -.00001716  00000-0 -91878-4 0  9994,2 51962  53.0899 289.2687 0000777  84.1460 275.9619 15.08047241 68279,6920.305,95.488,542.707,541.632,0.0
51962.0,STARLINK-3697,PAYLOAD,2023-05-24 16:02:17,15.08038854,7.32e-05,53.0891,288.0745,97.3623,262.745,8.2951e-05,1.006e-05,0.0,0 STARLINK-3697,1 51962U 22025G   23144.66825436  .00001006  00000-0  82951-4 0  9994,2 51962  53.0891 288.0745 0000732  97.3623 262.7450 15.08038854 68313,6920.33,95.488,542.702,541.689,0.0
51962.0,STARLINK-3697,PAYLOAD,2023-05-25 14:18:23,15.08035915,7.05e-05,53.0888,283.9026,88.2712,271.8359,7.9244e-05,9.48e-06,0.0,0 STARLINK-3697,1 51962U 22025G   23145.59610480  .00000948  00000-0  79244-4 0  9993,2 51962  53.0888 283.9026 0000705  88.2712 271.8359 15.08035915 67349,6920.339,95.488,542.692,541.716,0.0
51962.0,STARLINK-3697,PAYLOAD,2023-05-26 14:09:56,15.08030699,6.72e-05,53.0862,279.4294,108.3033,251.8031,2.8106e-05,1.52e-06,0.0,0 STARLINK-3697,1 51962U 22025G   23146.59023151  .00000152  00000-0  28106-4 0  9995,2 51962  53.0862 279.4294 0000672 108.3033 251.8031 15.08030699 67496,6920.355,95.489,542.685,541.755,0.0
51962.0,STARLINK-3697,PAYLOAD,2023-05-26 15:45:22,15.08030628,6.5e-05,53.086,279.1318,94.1312,265.9752,2.5021e-05,1.04e-06,0.0,0 STARLINK-3697,1 51962U 22025G   23146.65650677  .00000104  00000-0  25021-4 0  9991,2 51962  53.0860 279.1318 0000650  94.1312 265.9752 15.08030628 68619,6920.355,95.489,542.67,541.771,0.0
51962.0,STARLINK-3697,PAYLOAD,2023-05-27 15:36:54,15.08033925,6.53e-05,53.0845,274.6642,97.3364,262.77,4.4704e-05,4.11e-06,0.0,0 STARLINK-3697,1 51962U 22025G   23147.65062946  .00000411  00000-0  44704-4 0  9998,2 51962  53.0845 274.6642 0000653  97.3364 262.7700 15.08033925 67651,6920.345,95.489,542.662,541.758,0.0
